[{"OBJECT_NAME":"STARLINK-30327","OBJECT_ID":"2023-129K","EPOCH":"2026-03-09T12:25:28.993152","MEAN_MOTION":15.26626807,"ECCENTRICITY":0.00230309,"INCLINATION":42.9974,"RA_OF_ASC_NODE":85.9834,"ARG_OF_PERICENTER":70.832,"MEAN_ANOMALY":289.5022,"EPHEMERIS_TYPE":0,"CLASSIFICATION_TYPE":"U","NORAD_CAT_ID":57707,"ELEMENT_SET_NO":999,"REV_AT_EPOCH":14090,"BSTAR":0.00029313824,"MEAN_MOTION_DOT":7.635e-5,"MEAN_MOTION_DDOT":0},{"OBJECT_NAME":"STARLINK-32232","OBJECT_ID":"2024-144G","EPOCH":"2026-03-09T16:07:14.096352","MEAN_MOTION":15.30190379,"ECCENTRICITY":0.00012913,"INCLINATION":53.1603,"RA_OF_ASC_NODE":217.4141,"ARG_OF_PERICENTER":50.9111,"MEAN_ANOMALY":309.2004,"EPHEMERIS_TYPE":0,"CLASSIFICATION_TYPE":"U","NORAD_CAT_ID":60431,"ELEMENT_SET_NO":999,"REV_AT_EPOCH":8930,"BSTAR":1.8030419e-5,"MEAN_MOTION_DOT":1.75e-6,"MEAN_MOTION_DDOT":0}]
