STARLINK-30327          
1 57707U 23129K   26068.51769668  .00007635  00000+0  29314-3 0  9995
2 57707  42.9974  85.9834 0023030  70.8320 289.5022 15.26626807140903
STARLINK-32232          
1 60431U 24144G   26068.67169093  .00000175  00000+0  18030-4 0  9990
2 60431  53.1603 217.4141 0001291  50.9111 309.2004 15.30190379 89300
